FLOCK 2K-31             
1 42869U 17042AW  17235.55284016  .00011259  00000-0  35480-3 0  9993
2 42869  96.9990 142.4057 0014338 103.6828 256.6012 15.32948811  5978
FLOCK 2K-32             
1 42870U 17042AX  17235.55274818  .00011258  00000-0  35483-3 0  9996
2 42870  96.9991 142.4063 0014329 104.2514 256.0322 15.32943813  5972
FLOCK 2K-29             
1 42871U 17042AY  17235.55251144  .00011228  00000-0  35378-3 0  9994
2 42871  96.9991 142.4071 0014368 103.6596 256.6248 15.32952894  5970
FLOCK 2K-30             
1 42872U 17042AZ  17235.55195764  .00011414  00000-0  35995-3 0  9992
2 42872  96.9990 142.4069 0014368 104.1754 256.1087 15.32921643  5962
FLOCK 2K-44             
1 42873U 17042BA  17235.54922922  .00005984  00000-0  18889-3 0  9994
2 42873  96.9992 142.4116 0015251  95.1974 265.1010 15.33079000  5972
FLOCK 2K-43             
1 42874U 17042BB  17235.54904270  .00011620  00000-0  36440-3 0  9998
2 42874  96.9990 142.4106 0015328  95.7607 264.5384 15.33080632  5974
FLOCK 2K-41             
1 42875U 17042BC  17235.54884058  .00008604  00000-0  27086-3 0  9994
2 42875  96.9989 142.4103 0015235  95.7989 264.4992 15.33039477  5975
FLOCK 2K-36             
1 42876U 17042BD  17235.22076770  .00010235  00000-0  32018-3 0  9998
2 42876  96.9992 142.1049 0015424  96.6775 263.6225 15.33190575  5921
FLOCK 2K-35             
1 42877U 17042BE  17235.22099265  .00011777  00000-0  36930-3 0  9992
2 42877  96.9992 142.1045 0015388  96.8696 263.4298 15.33079847  5927
FLOCK 2K-34             
1 42878U 17042BF  17235.22011636  .00009775  00000-0  30581-3 0  9990
2 42878  96.9988 142.1035 0015496  96.6120 263.6888 15.33199689  5926
FLOCK 2K-33             
1 42879U 17042BG  17235.87160508  .00010229  00000-0  31887-3 0  9991
2 42879  96.9989 142.7233 0015535  94.2859 266.0160 15.33299879  6025
FLOCK 2K-28             
1 42880U 17042BH  17235.22070930  .00011829  00000-0  37073-3 0  9991
2 42880  96.9993 142.1048 0015296  96.8046 263.4938 15.33097137  5925
LEMUR-2-ARTFISCHER      
1 42881U 17042BJ  17235.61078544  .00005273  00000-0  16622-3 0  9997
2 42881  97.0018 142.4860 0016137  98.4383 261.8691 15.33160172  5971
FLOCK 2K-27             
1 42882U 17042BK  17235.61023394  .00011723  00000-0  36543-3 0  9992
2 42882  96.9992 142.4783 0015563  95.3127 264.9892 15.33267199  5984
FLOCK 2K-26             
1 42883U 17042BL  17235.21711581  .00008344  00000-0  26014-3 0  9998
2 42883  96.9990 142.1086 0015680  96.2932 264.0098 15.33351754  5924
FLOCK 2K-25             
1 42884U 17042BM  17235.54441679  .00010682  00000-0  33403-3 0  9991
2 42884  96.9987 142.4148 0015595  95.4120 264.8903 15.33190323  5979
FLOCK 2K-20             
1 42885U 17042BN  17235.28192872  .00008778  00000-0  27387-3 0  9998
2 42885  96.9993 142.1716 0015730  96.0531 264.2505 15.33314557  5934
FLOCK 2K-19             
1 42886U 17042BP  17235.21686959  .00010047  00000-0  31363-3 0  9997
2 42886  96.9992 142.1100 0015673  96.4033 263.8996 15.33257907  5921
FLOCK 2K-18             
1 42887U 17042BQ  17235.41030177  .00012581  00000-0  38977-3 0  9998
2 42887  96.9992 142.2975 0015825  95.1001 265.2049 15.33441690  5955
FLOCK 2K-17             
1 42888U 17042BR  17235.54148756  .00011965  00000-0  37129-3 0  9999
2 42888  96.9987 142.4181 0015785  94.8084 265.4962 15.33402999  5970
FLOCK 2K-16             
1 42889U 17042BS  17235.54185400  .00003515  00000-0  11125-3 0  9997
2 42889  96.9992 142.4206 0015664  94.3509 265.9524 15.33260069  5977
FLOCK 2K-15             
1 42890U 17042BT  17235.27911563  .00006229  00000-0  19424-3 0  9991
2 42890  96.9995 142.1768 0015816  95.1794 265.1255 15.33442512  5930
FLOCK 2K-13             
1 42891U 17042BU  17235.53866686  .00002648  00000-0  83782-4 0  9996
2 42891  96.9990 142.4233 0015872  93.6852 266.6207 15.33479150  5971
FLOCK 2K-14             
1 42892U 17042BV  17235.27940538  .00009974  00000-0  31036-3 0  9990
2 42892  96.9986 142.1722 0015748  94.9310 265.3732 15.33361647  5938
FLOCK 2K-12             
1 42893U 17042BW  17235.27806210  .00005769  00000-0  18042-3 0  9999
2 42893  96.9992 142.1765 0015775  94.1394 266.1653 15.33383726  5930
FLOCK 2K-11             
1 42894U 17042BX  17235.21170521  .00008046  00000-0  24956-3 0  9995
2 42894  96.9992 142.1164 0015816  94.0495 266.2557 15.33524134  5924
FLOCK 2K-10             
1 42895U 17042BY  17235.66867043  .00008585  00000-0  26710-3 0  9995
2 42895  96.9987 142.5464 0015625  91.8257 268.4777 15.33410214  5993
FLOCK 2K-09             
1 42896U 17042BZ  17235.53676384  .00007747  00000-0  24078-3 0  9992
2 42896  96.9991 142.4260 0015443  91.1330 269.1683 15.33478582  6149
FLOCK 2K-06             
1 42897U 17042CA  17235.29334276  .00012142  00000-0  38310-3 0  9996
2 42897  96.9992 142.1575 0014290 104.5608 255.7221 15.32891034  5938
SILU-1 (SILKROAD 1)     
1 42903U 17021F   17235.67161043  .00016119  00000-0  20291-3 0  9990
2 42903  42.7830 313.9547 0005872 354.7231 163.5686 15.59362489  3294
